     3.00           N                   E                   RINEX VERSION / TYPE
BRD_USR             ESA                 20190103 171942  UTCPGM / RUN BY / DATE
 GAL   3.4750E+01 -2.3438E-02  2.1973E-03  0.0000E+00       IONOSPHERIC CORR
GAUT  2.7939677238E-09-1.776356839E-15 345600 2034 GSTB   0 TIME SYSTEM CORR
GPGA -3.0559021980E-09-1.154631946E-14 432000 2034 GSTB   0 TIME SYSTEM CORR
                                                            END OF HEADER
E19 2019 01 03 15 10 00-9.400013368577E-06 2.984279490192E-13 0.000000000000E+00
     2.700000000000E+01-1.562500000000E+00 3.828016595114E-09 3.124610360289E+00
    -3.539025783539E-08 1.400930341333E-04 3.926455974579E-06 5.440603279114E+03
     4.002000000000E+05-3.725290298462E-08 1.362890163217E+00 2.793967723846E-08
     9.579150732135E-01 2.567187500000E+02 2.184835907208E+00-5.819528120991E-09
     6.321691895271E-11 2.580000000000E+02 2.034000000000E+03 0.000000000000E+00
     3.120000000000E+00 0.000000000000E+00-8.614733815193E-09 0.000000000000E+00
     4.009000000000E+05 0.000000000000E+00 0.000000000000E+00 0.000000000000E+00
E21 2019 01 03 15 10 00-5.126048345119E-04-1.861621967691E-12 0.000000000000E+00
     2.700000000000E+01 1.967500000000E+02 2.479746148523E-09-1.928146831169E+00
     9.175390005112E-06 5.050783511251E-05 8.422881364822E-06 5.440636800766E+03
     4.002000000000E+05 9.313225746155E-09-2.827380111388E+00 1.862645149231E-09
     9.899012532920E-01 1.733437500000E+02-4.113077419898E-01-5.360223274815E-09
     1.746501320219E-10 2.580000000000E+02 2.034000000000E+03 0.000000000000E+00
     3.120000000000E+00 0.000000000000E+00-2.561137080193E-09 0.000000000000E+00
     4.009000000000E+05 0.000000000000E+00 0.000000000000E+00 0.000000000000E+00
E25 2019 01 03 15 10 00 1.934794359840E-03-1.132605120802E-11 0.000000000000E+00
     2.700000000000E+01 1.892187500000E+02 2.526533811703E-09 2.192575030579E+00
     8.825212717056E-06 2.221835311502E-04 6.750226020813E-06 5.440631702423E+03
     4.002000000000E+05 3.725290298462E-09-2.827389159536E+00 8.195638656616E-08
     9.899074706938E-01 2.088125000000E+02-1.388906800743E+00-5.321650239522E-09
     1.392915163365E-10 2.580000000000E+02 2.034000000000E+03 0.000000000000E+00
     3.120000000000E+00 0.000000000000E+00-1.164153218269E-09 0.000000000000E+00
     4.009000000000E+05 0.000000000000E+00 0.000000000000E+00 0.000000000000E+00
E27 2019 01 03 15 10 00 5.571476067416E-04-7.673861546209E-12 0.000000000000E+00
     2.700000000000E+01 2.031562500000E+02 2.459030999940E-09-6.197180812656E-01
     9.456649422646E-06 2.111487556249E-04 8.145347237587E-06 5.440633731842E+03
     4.002000000000E+05-5.587935447693E-09-2.827363621375E+00-5.587935447693E-08
     9.898744497070E-01 1.801562500000E+02-9.329221418719E-01-5.347008438650E-09
     1.535778257043E-10 2.580000000000E+02 2.034000000000E+03 0.000000000000E+00
     3.120000000000E+00 0.000000000000E+00-2.561137080193E-09 0.000000000000E+00
     4.009000000000E+05 0.000000000000E+00 0.000000000000E+00 0.000000000000E+00
E30 2019 01 03 15 10 00 5.217930593062E-03-3.049649421882E-11 0.000000000000E+00
     2.700000000000E+01 2.081562500000E+02 2.546177487084E-09-1.279337323363E+00
     9.536743164062E-06 2.934052608907E-04 7.579103112221E-06 5.440621274948E+03
     4.002000000000E+05 9.685754776001E-08-2.821353089321E+00-4.470348358154E-08
     9.878883321429E-01 1.916250000000E+02 4.919071813829E-01-5.387367262614E-09
     1.335769925893E-10 2.580000000000E+02 2.034000000000E+03 0.000000000000E+00
     3.120000000000E+00 0.000000000000E+00-2.793967723846E-09 0.000000000000E+00
     4.009000000000E+05 0.000000000000E+00 0.000000000000E+00 0.000000000000E+00
E31 2019 01 03 15 10 00 9.420043788850E-04-9.634959496907E-12 0.000000000000E+00
     2.700000000000E+01 1.705312500000E+02 2.427601119331E-09-2.365360979808E+00
     7.966533303261E-06 2.571492223069E-04 7.629394531250E-06 5.440638788223E+03
     4.002000000000E+05-6.519258022308E-08-2.827410728800E+00 7.078051567078E-08
     9.898770800337E-01 1.947812500000E+02-1.543451182640E+00-5.386652947145E-09
     6.035965707914E-11 2.580000000000E+02 2.034000000000E+03 0.000000000000E+00
     3.120000000000E+00 0.000000000000E+00-4.656612873077E-10 0.000000000000E+00
     4.009000000000E+05 0.000000000000E+00 0.000000000000E+00 0.000000000000E+00
E36 2019 01 03 15 10 00 7.639753748663E-04-4.462208380573E-12 0.000000000000E+00
     2.700000000000E+01-1.717500000000E+02 2.562606742857E-09 3.431544687553E-01
    -8.065253496170E-06 3.213984891772E-04 8.204951882362E-06 5.440602693558E+03
     4.002000000000E+05-3.725290298462E-09-7.443618483559E-01-5.587935447693E-09
     9.852777328867E-01 1.724062500000E+02-1.651522339323E+00-5.364152009891E-09
    -1.292910997790E-10 2.580000000000E+02 2.034000000000E+03 0.000000000000E+00
     3.120000000000E+00 5.600000000000E+01 1.164153218269E-09 0.000000000000E+00
     4.009000000000E+05 0.000000000000E+00 0.000000000000E+00 0.000000000000E+00
E12 2019 01 03 15 10 00 5.861164361704E-03 8.442668786302E-11 0.000000000000E+00
     2.700000000000E+01-1.748125000000E+02 2.509390240462E-09 1.175241552934E+00
    -8.121132850647E-06 3.668091958389E-04 7.404014468193E-06 5.440615203857E+03
     4.002000000000E+05 1.490116119385E-08-7.390627479928E-01-4.097819328308E-08
     9.820460707778E-01 1.920000000000E+02-8.997583727192E-01-5.397724836905E-09
    -1.021471119801E-10 2.580000000000E+02 2.034000000000E+03 0.000000000000E+00
     3.120000000000E+00 0.000000000000E+00-1.559965312481E-08 0.000000000000E+00
     4.011500000000E+05 0.000000000000E+00 0.000000000000E+00 0.000000000000E+00
E24 2019 01 03 15 10 00 6.304988171905E-03-1.965361207112E-11 0.000000000000E+00
     2.700000000000E+01 1.854062500000E+02 2.450102056585E-09 1.124483782989E+00
     8.659437298775E-06 4.605368012562E-04 7.523223757744E-06 5.440625560760E+03
     4.002000000000E+05-5.401670932770E-08-2.821297564265E+00 1.862645149231E-09
     9.879045734594E-01 1.931875000000E+02 4.418102349411E-01-5.309864034293E-09
     9.464679956196E-11 2.580000000000E+02 2.034000000000E+03 0.000000000000E+00
     3.120000000000E+00 0.000000000000E+00 4.260800778866E-08 0.000000000000E+00
     4.011500000000E+05 0.000000000000E+00 0.000000000000E+00 0.000000000000E+00
E12 2019 01 03 15 10 00 5.861163837835E-03 8.442668786302E-11 0.000000000000E+00
     2.700000000000E+01-1.748125000000E+02 2.509390240462E-09 1.175241552934E+00
    -8.121132850647E-06 3.668091958389E-04 7.404014468193E-06 5.440615203857E+03
     4.002000000000E+05 1.490116119385E-08-7.390627479928E-01-4.097819328308E-08
     9.820460707778E-01 1.920000000000E+02-8.997583727192E-01-5.397724836905E-09
    -1.021471119801E-10 5.210000000000E+02 2.034000000000E+03 0.000000000000E+00
     3.120000000000E+00 0.000000000000E+00-1.559965312481E-08-1.583248376846E-08
     4.011550000000E+05 0.000000000000E+00 0.000000000000E+00 0.000000000000E+00
E24 2019 01 03 15 10 00 6.304993352387E-03-1.965361207112E-11 0.000000000000E+00
     2.700000000000E+01 1.854062500000E+02 2.450102056585E-09 1.124483782989E+00
     8.659437298775E-06 4.605368012562E-04 7.523223757744E-06 5.440625560760E+03
     4.002000000000E+05-5.401670932770E-08-2.821297564265E+00 1.862645149231E-09
     9.879045734594E-01 1.931875000000E+02 4.418102349411E-01-5.309864034293E-09
     9.464679956196E-11 5.210000000000E+02 2.034000000000E+03 0.000000000000E+00
     3.120000000000E+00 0.000000000000E+00 4.260800778866E-08 4.773028194904E-08
     4.011550000000E+05 0.000000000000E+00 0.000000000000E+00 0.000000000000E+00
E15 2019 01 03 15 10 00 9.239652426913E-04-1.122657522501E-12 0.000000000000E+00
     2.700000000000E+01-2.074062500000E+02 2.534034124121E-09-1.180560053053E+00
    -9.544193744659E-06 3.801535349339E-04 8.719041943550E-06 5.440602148056E+03
     4.002000000000E+05 2.048909664154E-08-7.443633888087E-01 3.725290298462E-09
     9.852313744757E-01 1.643125000000E+02-1.700728473985E+00-5.379509792461E-09
    -1.064330047904E-10 2.580000000000E+02 2.034000000000E+03 0.000000000000E+00
     3.120000000000E+00 5.600000000000E+01 1.396983861923E-09 0.000000000000E+00
     4.012000000000E+05 0.000000000000E+00 0.000000000000E+00 0.000000000000E+00
E12 2019 01 03 15 10 00 5.861163837835E-03 8.442668786302E-11 0.000000000000E+00
     2.700000000000E+01-1.748125000000E+02 2.509390240462E-09 1.175241552934E+00
    -8.121132850647E-06 3.668091958389E-04 7.404014468193E-06 5.440615203857E+03
     4.002000000000E+05 1.490116119385E-08-7.390627479928E-01-4.097819328308E-08
     9.820460707778E-01 1.920000000000E+02-8.997583727192E-01-5.397724836905E-09
    -1.021471119801E-10 5.210000000000E+02 2.034000000000E+03 0.000000000000E+00
     3.120000000000E+00 0.000000000000E+00-1.559965312481E-08-1.583248376846E-08
     4.013950000000E+05 0.000000000000E+00 0.000000000000E+00 0.000000000000E+00
E18 2019 01 03 15 10 00 5.633785563987E-03-2.845013113983E-11 0.000000000000E+00
     2.700000000000E+01-1.011562500000E+02 2.973338137182E-09 6.590540861224E-01
    -7.480382919312E-06 1.664018569281E-01 1.089647412300E-06 5.289371597290E+03
     4.002000000000E+05 2.592802047729E-06-1.321807372731E+00-6.437301635742E-06
     8.817948417460E-01 3.323750000000E+02 1.435738701286E+00-4.460185784641E-09
     1.084688038754E-09 5.210000000000E+02 2.034000000000E+03 0.000000000000E+00
     3.120000000000E+00 4.550000000000E+02 1.420266926289E-08 1.583248376846E-08
     4.013950000000E+05 0.000000000000E+00 0.000000000000E+00 0.000000000000E+00
